OBJECT_NAME,OBJECT_ID,EPOCH,MEAN_MOTION,ECCENTRICITY,INCLINATION,RA_OF_ASC_NODE,ARG_OF_PERICENTER,MEAN_ANOMALY,EPHEMERIS_TYPE,CLASSIFICATION_TYPE,NORAD_CAT_ID,ELEMENT_SET_NO,REV_AT_EPOCH,BSTAR,MEAN_MOTION_DOT,MEAN_MOTION_DDOT
FLOCK 4BE-6,2024-149BA,2026-07-01T03:44:52.320768,15.39959980,.0002955,97.3793,265.8980,220.8486,139.2539,0,U,60516,999,10442,.49253E-3,.19569E-3,0
FLOCK 4BE-14,2024-149BB,2026-07-01T03:02:37.573728,15.41432611,.0003899,97.3700,266.0175,225.2849,134.8081,0,U,60517,999,10447,.49436E-3,.20626E-3,0
FLOCK 4BE-1,2024-149BC,2026-06-30T05:17:10.629024,15.43023210,.0003609,97.3785,266.4267,227.4250,132.6694,0,U,60518,999,10438,.40657E-3,.17866E-3,0
FLOCK 4BE-28,2024-149BD,2026-06-30T12:55:41.569248,15.45366549,.0003728,97.3755,267.5152,219.6931,140.4046,0,U,60519,999,10450,.42864E-3,.20403E-3,0
IPERDRONE.0,2024-149BE,2026-06-30T04:49:39.961344,15.68606801,.00042581,97.3784,275.0719,197.4799,162.6317,0,U,60520,999,10495,.65532517E-3,.74708E-3,0
TRANSPORTER-11 OBJECT BF,2024-149BF,2026-06-30T05:39:03.718944,15.92274722,.00068408,97.3726,278.2513,230.4226,129.6444,0,U,60521,999,10515,.10485426E-2,.350022E-2,.48623257E-4
CONNECTA IOT-2,2024-149BG,2026-07-01T02:23:17.099808,15.24090302,.0004787,97.3840,260.0345,275.5606,84.5085,0,U,60522,999,10401,.22612E-3,.5422E-4,0
CONNECTA IOT-4,2024-149BJ,2026-07-01T00:37:36.268608,15.42660338,.000481,97.3803,266.5637,224.3181,135.7681,0,U,60524,999,10446,.55892E-3,.2432E-3,0
ORESAT0.5,2024-149BK,2026-06-30T04:45:59.522112,15.45562810,.0004901,97.3732,267.4014,216.5431,143.5484,0,U,60525,999,10448,.41933E-3,.20095E-3,0
DEIMOS,2024-149BL,2026-07-01T03:28:52.209408,15.44720378,.0004822,97.3787,268.4965,220.5674,139.5216,0,U,60526,999,10460,.52054E-3,.24273E-3,0
CUAVA-2,2024-149BM,2026-06-30T22:58:02.721216,15.36429806,.0005644,97.3730,263.5014,233.1444,126.9283,0,U,60527,999,10428,.43979E-3,.15568E-3,0
ERNST,2024-149BN,2026-07-01T03:29:36.747744,15.39571153,.0004907,97.3813,265.9727,232.5508,127.5292,0,U,60528,999,10442,.4516E-3,.17708E-3,0
TORO,2024-149BQ,2026-07-01T03:33:08.863200,14.96472616,.0001307,97.6783,256.5552,97.4360,262.7010,0,U,60530,999,10204,.224E-3,.2486E-4,0
HYPSO-2,2024-149BR,2026-07-01T03:41:21.343200,14.98858278,.0001437,97.6815,258.2095,119.5941,240.5425,0,U,60531,999,10214,.30318E-3,.3602E-4,0
LEMU NGE,2024-149BS,2026-07-01T02:34:08.273280,14.95013970,.0001421,97.6844,256.7854,54.8043,305.3310,0,U,60532,999,10203,.22619E-3,.2418E-4,0
LEMUR-2-STELLA,2024-149BT,2026-06-30T23:31:07.864032,15.12095648,.0001114,97.6740,264.4969,98.4167,261.7189,0,U,60533,999,10258,.84663E-3,.14527E-3,0
SATELIOT_2,2024-149BU,2026-06-30T22:26:34.994400,14.96408034,.0001554,97.6822,256.6406,88.8914,271.2486,0,U,60534,999,10202,.19105E-3,.2108E-4,0
NIGHTJAR,2024-149BV,2026-07-01T03:25:58.009728,14.99090686,.0001289,97.6829,258.6539,118.4214,241.7139,0,U,60535,999,14496,.31026E-3,.371E-4,0
LEMUR-2-MARHISYAM,2024-149BW,2026-06-30T23:10:07.004640,15.11525784,.0003149,97.6890,264.9453,93.2108,266.9482,0,U,60536,999,10256,.71931E-3,.12135E-3,0
SATELIOT_4,2024-149BX,2026-07-01T03:26:58.602912,14.96713880,.0001962,97.6733,256.3631,32.5591,327.5751,0,U,60537,999,10206,.20338E-3,.2266E-4,0
PICO-02A021,2024-149BY,2026-06-30T22:40:13.987776,15.03385008,.0003772,97.6766,260.6591,354.2834,5.8348,0,U,60538,999,10180,.42165E-3,.5672E-4,0
ICEYE-X43,2024-149BZ,2026-07-01T02:34:26.640192,14.99720964,.0007789,97.6822,258.8837,42.4257,317.7567,0,U,60539,999,10220,.35947E-3,.4382E-4,0
HAWK-10A,2024-149CA,2026-07-01T03:27:13.595040,14.96553988,.0003997,97.6887,257.8154,45.0542,315.1003,0,U,60540,999,10207,.16849E-3,.1859E-4,0
UMBRA-09,2024-149CB,2026-07-01T04:07:14.721024,15.18464185,.0001447,97.6981,269.6193,230.0940,130.0167,0,U,60541,999,10284,.10775E-2,.22182E-3,0
QPS-SAR-8 (AMATERU-IV),2024-149CC,2026-07-01T02:19:28.317792,15.04275380,.0004203,97.6671,261.1296,76.6473,283.5221,0,U,60542,999,10236,.53136E-3,.7339E-4,0
ARCTIC WEATHER SATELLITE,2024-149CD,2026-07-01T02:58:31.156608,14.89805911,.0003601,97.6798,252.1910,77.7342,282.4279,0,U,60543,999,10137,.11287E-3,.1029E-4,0
CAPELLA-15 (ACADIA-5),2024-149CE,2026-07-01T04:50:00.431232,14.92413624,.0003815,97.6768,254.7543,35.6421,324.5053,0,U,60544,999,10194,.50475E-3,.5117E-4,0
HAWK-10B,2024-149CF,2026-07-01T03:27:01.497312,14.96553497,.000624,97.6809,257.1563,56.9135,303.2685,0,U,60545,999,10207,.17317E-3,.1913E-4,0
ICEYE-X39,2024-149CG,2026-07-01T03:40:22.001952,14.99983399,.0006605,97.6768,258.9866,83.1753,277.0222,0,U,60546,999,10221,.36084E-3,.4429E-4,0
UMBRA-10,2024-149CH,2026-07-01T04:06:36.152064,15.18464424,.0000689,97.6987,269.6481,173.6955,186.4287,0,U,60547,999,10285,.10594E-2,.21807E-3,0
