FLOCK 4BE-6             
1 60516U 24149BA  26182.15616112  .00019569  00000+0  49253-3 0  9995
2 60516  97.3793 265.8980 0002955 220.8486 139.2539 15.39959980104428
FLOCK 4BE-14            
1 60517U 24149BB  26182.12682377  .00020626  00000+0  49436-3 0  9998
2 60517  97.3700 266.0175 0003899 225.2849 134.8081 15.41432611104474
FLOCK 4BE-1             
1 60518U 24149BC  26181.22026191  .00017866  00000+0  40657-3 0  9993
2 60518  97.3785 266.4267 0003609 227.4250 132.6694 15.43023210104382
FLOCK 4BE-28            
1 60519U 24149BD  26181.53867557  .00020403  00000+0  42864-3 0  9990
2 60519  97.3755 267.5152 0003728 219.6931 140.4046 15.45366549104505
IPERDRONE.0             
1 60520U 24149BE  26181.20115696  .00074708  00000+0  65533-3 0  9991
2 60520  97.3784 275.0719 0004258 197.4799 162.6317 15.68606801104955
TRANSPORTER-11 OBJECT BF
1 60521U 24149BF  26181.23545971  .00350022  48623-4  10485-2 0  9997
2 60521  97.3726 278.2513 0006840 230.4226 129.6444 15.92274722105158
CONNECTA IOT-2          
1 60522U 24149BG  26182.09950347  .00005422  00000+0  22612-3 0  9999
2 60522  97.3840 260.0345 0004787 275.5606  84.5085 15.24090302104017
CONNECTA IOT-4          
1 60524U 24149BJ  26182.02611422  .00024320  00000+0  55892-3 0  9996
2 60524  97.3803 266.5637 0004810 224.3181 135.7681 15.42660338104462
ORESAT0.5               
1 60525U 24149BK  26181.19860558  .00020095  00000+0  41933-3 0  9996
2 60525  97.3732 267.4014 0004901 216.5431 143.5484 15.45562810104484
DEIMOS                  
1 60526U 24149BL  26182.14504872  .00024273  00000+0  52054-3 0  9995
2 60526  97.3787 268.4965 0004822 220.5674 139.5216 15.44720378104603
CUAVA-2                 
1 60527U 24149BM  26181.95697594  .00015568  00000+0  43979-3 0  9991
2 60527  97.3730 263.5014 0005644 233.1444 126.9283 15.36429806104282
ERNST                   
1 60528U 24149BN  26182.14556421  .00017708  00000+0  45160-3 0  9999
2 60528  97.3813 265.9727 0004907 232.5508 127.5292 15.39571153104426
TORO                    
1 60530U 24149BQ  26182.14801925  .00002486  00000+0  22400-3 0  9993
2 60530  97.6783 256.5552 0001307  97.4360 262.7010 14.96472616102047
HYPSO-2                 
1 60531U 24149BR  26182.15371925  .00003602  00000+0  30318-3 0  9995
2 60531  97.6815 258.2095 0001437 119.5941 240.5425 14.98858278102149
LEMU NGE                
1 60532U 24149BS  26182.10704020  .00002418  00000+0  22619-3 0  9996
2 60532  97.6844 256.7854 0001421  54.8043 305.3310 14.95013970102035
LEMUR-2-STELLA          
1 60533U 24149BT  26181.97995213  .00014527  00000+0  84663-3 0  9998
2 60533  97.6740 264.4969 0001114  98.4167 261.7189 15.12095648102585
SATELIOT_2              
1 60534U 24149BU  26181.93512725  .00002108  00000+0  19105-3 0  9999
2 60534  97.6822 256.6406 0001554  88.8914 271.2486 14.96408034102020
NIGHTJAR                
1 60535U 24149BV  26182.14303252  .00003710  00000+0  31026-3 0  9993
2 60535  97.6829 258.6539 0001289 118.4214 241.7139 14.99090686144964
LEMUR-2-MARHISYAM       
1 60536U 24149BW  26181.96535885  .00012135  00000+0  71931-3 0  9992
2 60536  97.6890 264.9453 0003149  93.2108 266.9482 15.11525784102564
SATELIOT_4              
1 60537U 24149BX  26182.14373383  .00002266  00000+0  20338-3 0  9996
2 60537  97.6733 256.3631 0001962  32.5591 327.5751 14.96713880102063
PICO-02A021             
1 60538U 24149BY  26181.94460634  .00005672  00000+0  42165-3 0  9996
2 60538  97.6766 260.6591 0003772 354.2834   5.8348 15.03385008101803
ICEYE-X43               
1 60539U 24149BZ  26182.10725278  .00004382  00000+0  35947-3 0  9991
2 60539  97.6822 258.8837 0007789  42.4257 317.7567 14.99720964102207
HAWK-10A                
1 60540U 24149CA  26182.14390735  .00001859  00000+0  16849-3 0  9999
2 60540  97.6887 257.8154 0003997  45.0542 315.1003 14.96553988102073
UMBRA-09                
1 60541U 24149CB  26182.17169816  .00022182  00000+0  10775-2 0  9990
2 60541  97.6981 269.6193 0001447 230.0940 130.0167 15.18464185102844
QPS-SAR-8 (AMATERU-IV)  
1 60542U 24149CC  26182.09685553  .00007339  00000+0  53136-3 0  9999
2 60542  97.6671 261.1296 0004203  76.6473 283.5221 15.04275380102364
ARCTIC WEATHER SATELLITE
1 60543U 24149CD  26182.12397172  .00001029  00000+0  11287-3 0  9992
2 60543  97.6798 252.1910 0003601  77.7342 282.4279 14.89805911101378
CAPELLA-15 (ACADIA-5)   
1 60544U 24149CE  26182.20139388  .00005117  00000+0  50475-3 0  9999
2 60544  97.6768 254.7543 0003815  35.6421 324.5053 14.92413624101945
HAWK-10B                
1 60545U 24149CF  26182.14376733  .00001913  00000+0  17317-3 0  9998
2 60545  97.6809 257.1563 0006240  56.9135 303.2685 14.96553497102071
ICEYE-X39               
1 60546U 24149CG  26182.15303243  .00004429  00000+0  36084-3 0  9993
2 60546  97.6768 258.9866 0006605  83.1753 277.0222 14.99983399102216
UMBRA-10                
1 60547U 24149CH  26182.17125176  .00021807  00000+0  10594-2 0  9999
2 60547  97.6987 269.6481 0000689 173.6955 186.4287 15.18464424102856
